{"type": "FeatureCollection", "features": [ {"type": "Feature", "properties": {"norad_id": 30846, "name": "FENGYUN 1C DEB", "group": "fengyun-1c-debris", "lat": -39.329909609367164, "lon": -177.10040311153557, "alt_km": 724.650411514659, "timestamp": "2025-12-26T16:33:55.850306+00:00", "meta": {"OBJECT_NAME": "FENGYUN 1C DEB", "OBJECT_ID": "1999-025AWG", "EPOCH": "2025-12-25T23:08:12.928128", "MEAN_MOTION": 14.41606109, "ECCENTRICITY": 0.0053902, "INCLINATION": 99.3213, "RA_OF_ASC_NODE": 174.3737, "ARG_OF_PERICENTER": 297.5542, "MEAN_ANOMALY": 215.6715, "EPHEMERIS_TYPE": 0, "CLASSIFICATION_TYPE": "U", "NORAD_CAT_ID": 30846, "ELEMENT_SET_NO": 999, "REV_AT_EPOCH": 98120, "BSTAR": 0.00078221, "MEAN_MOTION_DOT": 2.538e-05, "MEAN_MOTION_DDOT": 0}, "tle": {"line1": "1 30846U 99025AWG 25359.96403852  .00002538  00000+0  78221-3 0  9997", "line2": "2 30846  99.3213 174.3737 0053902 297.5542 215.6715 14.41606109981204"}}, "geometry": {"type": "Point", "coordinates": [-177.10040311153557, -39.329909609367164]}}, {"type": "Feature", "properties": {"norad_id": 30847, "name": "FENGYUN 1C DEB", "group": "fengyun-1c-debris", "lat": -60.30015407683856, "lon": -35.036021753210704, "alt_km": 809.4209105935224, "timestamp": "2025-12-26T16:33:55.850316+00:00", "meta": {"OBJECT_NAME": "FENGYUN 1C DEB", "OBJECT_ID": "1999-025AWH", "EPOCH": "2025-12-24T09:20:18.218400", "MEAN_MOTION": 14.17103703, "ECCENTRICITY": 0.00657959, "INCLINATION": 98.7321, "RA_OF_ASC_NODE": 158.3361, "ARG_OF_PERICENTER": 294.6027, "MEAN_ANOMALY": 94.5153, "EPHEMERIS_TYPE": 0, "CLASSIFICATION_TYPE": "U", "NORAD_CAT_ID": 30847, "ELEMENT_SET_NO": 999, "REV_AT_EPOCH": 96220, "BSTAR": 0.0019856738, "MEAN_MOTION_DOT": 4.041e-05, "MEAN_MOTION_DDOT": 0}, "tle": {"line1": "1 30847U 99025AWH 25358.38909975  .00004041  00000+0  19857-2 0  9990", "line2": "2 30847  98.7321 158.3361 0065795 294.6027  94.5153 14.17103703962206"}}, "geometry": {"type": "Point", "coordinates": [-35.036021753210704, -60.30015407683856]}}, {"type": "Feature", "properties": {"norad_id": 30848, "name": "FENGYUN 1C DEB", "group": "fengyun-1c-debris", "lat": 41.06601849354399, "lon": 24.190917639881224, "alt_km": 801.8070065644761, "timestamp": "2025-12-26T16:33:55.850325+00:00", "meta": {"OBJECT_NAME": "FENGYUN 1C DEB", "OBJECT_ID": "1999-025AWJ", "EPOCH": "2025-12-24T12:01:43.212576", "MEAN_MOTION": 14.34555484, "ECCENTRICITY": 0.00435565, "INCLINATION": 99.0594, "RA_OF_ASC_NODE": 193.906, "ARG_OF_PERICENTER": 301.431, "MEAN_ANOMALY": 58.2618, "EPHEMERIS_TYPE": 0, "CLASSIFICATION_TYPE": "U", "NORAD_CAT_ID": 30848, "ELEMENT_SET_NO": 999, "REV_AT_EPOCH": 97475, "BSTAR": 0.0011922202, "MEAN_MOTION_DOT": 3.354e-05, "MEAN_MOTION_DDOT": 0}, "tle": {"line1": "1 30848U 99025AWJ 25358.50119459  .00003354  00000+0  11922-2 0  9996", "line2": "2 30848  99.0594 193.9060 0043556 301.4310  58.2618 14.34555484974759"}}, "geometry": {"type": "Point", "coordinates": [24.190917639881224, 41.06601849354399]}}, {"type": "Feature", "properties": {"norad_id": 30849, "name": "FENGYUN 1C DEB", "group": "fengyun-1c-debris", "lat": 52.31534710059312, "lon": -107.12404076944011, "alt_km": 856.8638100996086, "timestamp": "2025-12-26T16:33:55.850334+00:00", "meta": {"OBJECT_NAME": "FENGYUN 1C DEB", "OBJECT_ID": "1999-025AWK", "EPOCH": "2025-12-26T02:34:13.871136", "MEAN_MOTION": 14.18927761, "ECCENTRICITY": 0.00480688, "INCLINATION": 99.0468, "RA_OF_ASC_NODE": 60.3782, "ARG_OF_PERICENTER": 326.9339, "MEAN_ANOMALY": 62.538, "EPHEMERIS_TYPE": 0, "CLASSIFICATION_TYPE": "U", "NORAD_CAT_ID": 30849, "ELEMENT_SET_NO": 999, "REV_AT_EPOCH": 96562, "BSTAR": 0.0013328861, "MEAN_MOTION_DOT": 2.764e-05, "MEAN_MOTION_DDOT": 0}, "tle": {"line1": "1 30849U 99025AWK 25360.10710499  .00002764  00000+0  13329-2 0  9994", "line2": "2 30849  99.0468  60.3782 0048068 326.9339  62.5380 14.18927761965627"}}, "geometry": {"type": "Point", "coordinates": [-107.12404076944011, 52.31534710059312]}}, {"type": "Feature", "properties": {"norad_id": 30850, "name": "FENGYUN 1C DEB", "group": "fengyun-1c-debris", "lat": -69.34668026983995, "lon": -111.53473954498642, "alt_km": 897.1198696092251, "timestamp": "2025-12-26T16:33:55.850344+00:00", "meta": {"OBJECT_NAME": "FENGYUN 1C DEB", "OBJECT_ID": "1999-025AWL", "EPOCH": "2025-12-26T02:22:08.914656", "MEAN_MOTION": 14.16382611, "ECCENTRICITY": 0.01092213, "INCLINATION": 98.3938, "RA_OF_ASC_NODE": 224.8464, "ARG_OF_PERICENTER": 158.6843, "MEAN_ANOMALY": 354.9398, "EPHEMERIS_TYPE": 0, "CLASSIFICATION_TYPE": "U", "NORAD_CAT_ID": 30850, "ELEMENT_SET_NO": 999, "REV_AT_EPOCH": 95987, "BSTAR": 0.0018457847, "MEAN_MOTION_DOT": 3.847e-05, "MEAN_MOTION_DDOT": 0}, "tle": {"line1": "1 30850U 99025AWL 25360.09871429  .00003847  00000+0  18458-2 0  9996", "line2": "2 30850  98.3938 224.8464 0109221 158.6843 354.9398 14.16382611959870"}}, "geometry": {"type": "Point", "coordinates": [-111.53473954498642, -69.34668026983995]}}, {"type": "Feature", "properties": {"norad_id": 30852, "name": "FENGYUN 1C DEB", "group": "fengyun-1c-debris", "lat": -29.06392868872007, "lon": 22.93966289570607, "alt_km": 893.3070721446975, "timestamp": "2025-12-26T16:33:55.850353+00:00", "meta": {"OBJECT_NAME": "FENGYUN 1C DEB", "OBJECT_ID": "1999-025AWN", "EPOCH": "2025-12-24T18:43:57.823968", "MEAN_MOTION": 14.10303864, "ECCENTRICITY": 0.00563032, "INCLINATION": 98.7331, "RA_OF_ASC_NODE": 16.1846, "ARG_OF_PERICENTER": 200.1468, "MEAN_ANOMALY": 159.748, "EPHEMERIS_TYPE": 0, "CLASSIFICATION_TYPE": "U", "NORAD_CAT_ID": 30852, "ELEMENT_SET_NO": 999, "REV_AT_EPOCH": 96552, "BSTAR": 0.00043887864, "MEAN_MOTION_DOT": 7.47e-06, "MEAN_MOTION_DDOT": 0}, "tle": {"line1": "1 30852U 99025AWN 25358.78053037  .00000747  00000+0  43888-3 0  9990", "line2": "2 30852  98.7331  16.1846 0056303 200.1468 159.7480 14.10303864965526"}}, "geometry": {"type": "Point", "coordinates": [22.93966289570607, -29.06392868872007]}}, {"type": "Feature", "properties": {"norad_id": 30856, "name": "FENGYUN 1C DEB", "group": "fengyun-1c-debris", "lat": 47.52048314560965, "lon": 14.100848015396094, "alt_km": 705.1344357146772, "timestamp": "2025-12-26T16:33:55.850363+00:00", "meta": {"OBJECT_NAME": "FENGYUN 1C DEB", "OBJECT_ID": "1999-025AWS", "EPOCH": "2025-12-24T11:07:04.348128", "MEAN_MOTION": 14.46570184, "ECCENTRICITY": 0.00873355, "INCLINATION": 98.2024, "RA_OF_ASC_NODE": 182.8814, "ARG_OF_PERICENTER": 203.0018, "MEAN_ANOMALY": 218.7229, "EPHEMERIS_TYPE": 0, "CLASSIFICATION_TYPE": "U", "NORAD_CAT_ID": 30856, "ELEMENT_SET_NO": 999, "REV_AT_EPOCH": 96695, "BSTAR": 0.00535508, "MEAN_MOTION_DOT": 0.00020251, "MEAN_MOTION_DDOT": 0}, "tle": {"line1": "1 30856U 99025AWS 25358.46324477  .00020251  00000+0  53551-2 0  9997", "line2": "2 30856  98.2024 182.8814 0087335 203.0018 218.7229 14.46570184966957"}}, "geometry": {"type": "Point", "coordinates": [14.100848015396094, 47.52048314560965]}}, {"type": "Feature", "properties": {"norad_id": 30857, "name": "FENGYUN 1C DEB", "group": "fengyun-1c-debris", "lat": -51.92786825173726, "lon": 159.75386158174032, "alt_km": 699.0476600702787, "timestamp": "2025-12-26T16:33:55.850373+00:00", "meta": {"OBJECT_NAME": "FENGYUN 1C DEB", "OBJECT_ID": "1999-025AWT", "EPOCH": "2025-12-23T04:47:46.082688", "MEAN_MOTION": 14.51842039, "ECCENTRICITY": 0.00407608, "INCLINATION": 98.9722, "RA_OF_ASC_NODE": 347.6644, "ARG_OF_PERICENTER": 263.7101, "MEAN_ANOMALY": 95.9448, "EPHEMERIS_TYPE": 0, "CLASSIFICATION_TYPE": "U", "NORAD_CAT_ID": 30857, "ELEMENT_SET_NO": 999, "REV_AT_EPOCH": 96875, "BSTAR": 0.0044417338, "MEAN_MOTION_DOT": 0.00018071, "MEAN_MOTION_DDOT": 0}, "tle": {"line1": "1 30857U 99025AWT 25357.19983892  .00018071  00000+0  44417-2 0  9997", "line2": "2 30857  98.9722 347.6644 0040760 263.7101  95.9448 14.51842039968754"}}, "geometry": {"type": "Point", "coordinates": [159.75386158174032, -51.92786825173726]}}, {"type": "Feature", "properties": {"norad_id": 30858, "name": "FENGYUN 1C DEB", "group": "fengyun-1c-debris", "lat": -29.197275360675714, "lon": 63.154437519125686, "alt_km": 842.5561018334038, "timestamp": "2025-12-26T16:33:55.850382+00:00", "meta": {"OBJECT_NAME": "FENGYUN 1C DEB", "OBJECT_ID": "1999-025AWU", "EPOCH": "2025-12-26T03:16:59.558016", "MEAN_MOTION": 14.17801094, "ECCENTRICITY": 0.00304826, "INCLINATION": 98.7975, "RA_OF_ASC_NODE": 57.6418, "ARG_OF_PERICENTER": 72.5709, "MEAN_ANOMALY": 315.1342, "EPHEMERIS_TYPE": 0, "CLASSIFICATION_TYPE": "U", "NORAD_CAT_ID": 30858, "ELEMENT_SET_NO": 999, "REV_AT_EPOCH": 97170, "BSTAR": 0.00035905392, "MEAN_MOTION_DOT": 6.92e-06, "MEAN_MOTION_DDOT": 0}, "tle": {"line1": "1 30858U 99025AWU 25360.13680044  .00000692  00000+0  35905-3 0  9992", "line2": "2 30858  98.7975  57.6418 0030482  72.5709 315.1342 14.17801094971707"}}, "geometry": {"type": "Point", "coordinates": [63.154437519125686, -29.197275360675714]}}, {"type": "Feature", "properties": {"norad_id": 30859, "name": "FENGYUN 1C DEB", "group": "fengyun-1c-debris", "lat": -4.22459456865502, "lon": -129.05881663501322, "alt_km": 752.1150066291184, "timestamp": "2025-12-26T16:33:55.850391+00:00", "meta": {"OBJECT_NAME": "FENGYUN 1C DEB", "OBJECT_ID": "1999-025AWV", "EPOCH": "2025-12-26T02:27:45.060768", "MEAN_MOTION": 14.49320521, "ECCENTRICITY": 0.00306624, "INCLINATION": 98.9208, "RA_OF_ASC_NODE": 50.9849, "ARG_OF_PERICENTER": 348.6315, "MEAN_ANOMALY": 11.4181, "EPHEMERIS_TYPE": 0, "CLASSIFICATION_TYPE": "U", "NORAD_CAT_ID": 30859, "ELEMENT_SET_NO": 999, "REV_AT_EPOCH": 97228, "BSTAR": 0.0024493798, "MEAN_MOTION_DOT": 9.368e-05, "MEAN_MOTION_DDOT": 0}, "tle": {"line1": "1 30859U 99025AWV 25360.10260487  .00009368  00000+0  24494-2 0  9994", "line2": "2 30859  98.9208  50.9849 0030662 348.6315  11.4181 14.49320521972280"}}, "geometry": {"type": "Point", "coordinates": [-129.05881663501322, -4.22459456865502]}}]}